{
  "norad_id": 58378,
  "name": "STARLINK-30920",
  "history": [
    {
      "epoch": "2026-04-18T10:22:48.213408Z",
      "apogee_km": 475.9228392431951,
      "perigee_km": 474.488160524269,
      "latitude_deg": -2.001357426314452e-06,
      "longitude_deg": 161.64912841219274,
      "height_km": 475.9074788629209,
      "semi_major_axis_km": 6853.342499883732,
      "eccentricity": 0.00010467,
      "inclination_deg": 53.1596,
      "raan_deg": 163.9016,
      "arg_perigee_deg": 74.1089,
      "mean_anomaly_deg": 286.0027,
      "mean_motion_rev_day": 15.30203205
    },
    {
      "epoch": "2026-04-19T13:01:42.934656Z",
      "apogee_km": 476.0880192066297,
      "perigee_km": 474.36919511235465,
      "latitude_deg": -3.914339250853204e-05,
      "longitude_deg": 115.67017846251278,
      "height_km": 475.98770809929385,
      "semi_major_axis_km": 6853.365607159492,
      "eccentricity": 0.0001254,
      "inclination_deg": 53.1599,
      "raan_deg": 158.7451,
      "arg_perigee_deg": 80.6912,
      "mean_anomaly_deg": 279.423,
      "mean_motion_rev_day": 15.30195466
    },
    {
      "epoch": "2026-04-20T09:24:25.056288Z",
      "apogee_km": 476.0948004426473,
      "perigee_km": 474.40571461915624,
      "latitude_deg": 9.137710129039203e-06,
      "longitude_deg": 165.21469639366936,
      "height_km": 476.00751233917885,
      "semi_major_axis_km": 6853.3872575309015,
      "eccentricity": 0.00012323,
      "inclination_deg": 53.1576,
      "raan_deg": 154.802,
      "arg_perigee_deg": 80.4144,
      "mean_anomaly_deg": 279.6996,
      "mean_motion_rev_day": 15.30188215
    },
    {
      "epoch": "2026-04-21T08:55:13.158048Z",
      "apogee_km": 476.19206254551864,
      "perigee_km": 474.32807561067057,
      "latitude_deg": -1.5651135457166605e-05,
      "longitude_deg": 166.9969921583213,
      "height_km": 476.0981046226591,
      "semi_major_axis_km": 6853.397069078094,
      "eccentricity": 0.00013599,
      "inclination_deg": 53.1588,
      "raan_deg": 150.2504,
      "arg_perigee_deg": 86.3219,
      "mean_anomaly_deg": 273.7937,
      "mean_motion_rev_day": 15.30184929
    },
    {
      "epoch": "2026-04-22T19:24:22.792032Z",
      "apogee_km": 476.12261001867955,
      "perigee_km": 474.31743577884754,
      "latitude_deg": 1.9166526336741714e-05,
      "longitude_deg": 1.6162828077931883,
      "height_km": 476.022838738803,
      "semi_major_axis_km": 6853.357022898763,
      "eccentricity": 0.0001317,
      "inclination_deg": 53.1593,
      "raan_deg": 143.5761,
      "arg_perigee_deg": 83.9501,
      "mean_anomaly_deg": 276.165,
      "mean_motion_rev_day": 15.30198341
    },
    {
      "epoch": "2026-04-23T06:22:45.674688Z",
      "apogee_km": 476.10776737107153,
      "perigee_km": 474.38373040676106,
      "latitude_deg": -1.3665334194980926e-05,
      "longitude_deg": -165.5527330312744,
      "height_km": 476.01434996112346,
      "semi_major_axis_km": 6853.382748888916,
      "eccentricity": 0.00012578,
      "inclination_deg": 53.1591,
      "raan_deg": 141.4531,
      "arg_perigee_deg": 81.3656,
      "mean_anomaly_deg": 278.7487,
      "mean_motion_rev_day": 15.30189725
    },
    {
      "epoch": "2026-04-24T07:27:36.519840Z",
      "apogee_km": 476.0167859934054,
      "perigee_km": 474.4432529257383,
      "latitude_deg": 2.0789734630994268e-05,
      "longitude_deg": 172.34990479768314,
      "height_km": 476.0600291382131,
      "semi_major_axis_km": 6853.367019459572,
      "eccentricity": 0.0001148,
      "inclination_deg": 53.1588,
      "raan_deg": 136.5976,
      "arg_perigee_deg": 85.0341,
      "mean_anomaly_deg": 275.0791,
      "mean_motion_rev_day": 15.30194993
    },
    {
      "epoch": "2026-04-25T17:56:46.715424Z",
      "apogee_km": 476.0869516096227,
      "perigee_km": 474.3941673524305,
      "latitude_deg": -1.7970715039670342e-05,
      "longitude_deg": 6.966597165148956,
      "height_km": 476.1479471930498,
      "semi_major_axis_km": 6853.377559481027,
      "eccentricity": 0.0001235,
      "inclination_deg": 53.1594,
      "raan_deg": 129.9231,
      "arg_perigee_deg": 90.6316,
      "mean_anomaly_deg": 269.4826,
      "mean_motion_rev_day": 15.30191463
    },
    {
      "epoch": "2026-04-26T17:27:34.555392Z",
      "apogee_km": 476.051230491551,
      "perigee_km": 474.4132752401156,
      "latitude_deg": 3.1429466111503236e-05,
      "longitude_deg": 8.75084469964648,
      "height_km": 476.14963887208575,
      "semi_major_axis_km": 6853.369252865833,
      "eccentricity": 0.0001195,
      "inclination_deg": 53.1591,
      "raan_deg": 125.3723,
      "arg_perigee_deg": 91.3512,
      "mean_anomaly_deg": 268.7626,
      "mean_motion_rev_day": 15.30194245
    },
    {
      "epoch": "2026-04-27T16:58:22.423008Z",
      "apogee_km": 475.980182424285,
      "perigee_km": 474.48203615559396,
      "latitude_deg": 1.1623476076268936e-05,
      "longitude_deg": 10.534125498982268,
      "height_km": 476.2292382261389,
      "semi_major_axis_km": 6853.368109289939,
      "eccentricity": 0.0001093,
      "inclination_deg": 53.1587,
      "raan_deg": 120.8207,
      "arg_perigee_deg": 97.6676,
      "mean_anomaly_deg": 262.4449,
      "mean_motion_rev_day": 15.30194628
    },
    {
      "epoch": "2026-04-28T16:29:10.580928Z",
      "apogee_km": 475.99743524951555,
      "perigee_km": 474.4705041974612,
      "latitude_deg": -2.829380307899008e-05,
      "longitude_deg": 12.31877839665453,
      "height_km": 476.1262482110964,
      "semi_major_axis_km": 6853.370969723488,
      "eccentricity": 0.0001114,
      "inclination_deg": 53.1588,
      "raan_deg": 116.2717,
      "arg_perigee_deg": 89.5586,
      "mean_anomaly_deg": 270.5542,
      "mean_motion_rev_day": 15.3019367
    },
    {
      "epoch": "2026-04-29T06:35:39.308064Z",
      "apogee_km": 476.0372505102323,
      "perigee_km": 474.428079312911,
      "latitude_deg": -1.226013961185725e-05,
      "longitude_deg": 157.38890009423355,
      "height_km": 476.02983068610916,
      "semi_major_axis_km": 6853.369664911572,
      "eccentricity": 0.0001174,
      "inclination_deg": 53.1596,
      "raan_deg": 113.5409,
      "arg_perigee_deg": 82.7878,
      "mean_anomaly_deg": 277.3256,
      "mean_motion_rev_day": 15.30194107
    },
    {
      "epoch": "2026-04-30T06:06:27.140256Z",
      "apogee_km": 476.0283486476128,
      "perigee_km": 474.4274026126659,
      "latitude_deg": -1.8241238840615845e-07,
      "longitude_deg": 159.1725519859833,
      "height_km": 475.92020134520413,
      "semi_major_axis_km": 6853.364875630139,
      "eccentricity": 0.0001168,
      "inclination_deg": 53.16,
      "raan_deg": 108.9895,
      "arg_perigee_deg": 75.0914,
      "mean_anomaly_deg": 285.0216,
      "mean_motion_rev_day": 15.30195711
    },
    {
      "epoch": "2026-05-02T08:16:09.873408Z",
      "apogee_km": 476.17123625302975,
      "perigee_km": 474.31808185242335,
      "latitude_deg": -4.625675157243787e-05,
      "longitude_deg": 114.97598558618411,
      "height_km": 476.1137299900248,
      "semi_major_axis_km": 6853.381659052727,
      "eccentricity": 0.0001352,
      "inclination_deg": 53.1611,
      "raan_deg": 99.2811,
      "arg_perigee_deg": 88.2056,
      "mean_anomaly_deg": 271.9099,
      "mean_motion_rev_day": 15.3019009
    },
    {
      "epoch": "2026-05-03T04:38:52.560960Z",
      "apogee_km": 476.20895974541145,
      "perigee_km": 474.3511354521479,
      "latitude_deg": 1.4305783445385256e-05,
      "longitude_deg": 164.51974760533412,
      "height_km": 476.1306442897833,
      "semi_major_axis_km": 6853.417047598779,
      "eccentricity": 0.00013554,
      "inclination_deg": 53.1607,
      "raan_deg": 95.3396,
      "arg_perigee_deg": 87.0733,
      "mean_anomaly_deg": 273.0423,
      "mean_motion_rev_day": 15.30178238
    },
    {
      "epoch": "2026-05-04T15:08:01.783680Z",
      "apogee_km": 476.2916282401693,
      "perigee_km": 474.156120991639,
      "latitude_deg": 2.5237989694243312e-05,
      "longitude_deg": -0.8617623180656131,
      "height_km": 476.33673277224557,
      "semi_major_axis_km": 6853.360874615904,
      "eccentricity": 0.0001558,
      "inclination_deg": 53.1623,
      "raan_deg": 88.6628,
      "arg_perigee_deg": 101.6109,
      "mean_anomaly_deg": 258.5067,
      "mean_motion_rev_day": 15.30197051
    },
    {
      "epoch": "2026-05-05T14:38:49.547616Z",
      "apogee_km": 475.99254114600535,
      "perigee_km": 474.4382008282655,
      "latitude_deg": 1.96851126257103e-05,
      "longitude_deg": 0.9223578778046967,
      "height_km": 476.279476167282,
      "semi_major_axis_km": 6853.352370987135,
      "eccentricity": 0.0001134,
      "inclination_deg": 53.1622,
      "raan_deg": 84.1116,
      "arg_perigee_deg": 102.3014,
      "mean_anomaly_deg": 257.8114,
      "mean_motion_rev_day": 15.30199899
    },
    {
      "epoch": "2026-05-06T20:25:50.915136Z",
      "apogee_km": 476.04106986109946,
      "perigee_km": 474.42915674005053,
      "latitude_deg": -5.1119809893497945e-05,
      "longitude_deg": -92.82017125957465,
      "height_km": 476.36969012716776,
      "semi_major_axis_km": 6853.372113300575,
      "eccentricity": 0.0001176,
      "inclination_deg": 53.161,
      "raan_deg": 78.348,
      "arg_perigee_deg": 107.0414,
      "mean_anomaly_deg": 253.0715,
      "mean_motion_rev_day": 15.30193287
    },
    {
      "epoch": "2026-05-07T13:40:25.243104Z",
      "apogee_km": 476.05845873825547,
      "perigee_km": 474.37527502854846,
      "latitude_deg": 3.98695877498832e-05,
      "longitude_deg": 4.491821330671533,
      "height_km": 476.28736625230346,
      "semi_major_axis_km": 6853.353866883402,
      "eccentricity": 0.0001228,
      "inclination_deg": 53.1602,
      "raan_deg": 75.0111,
      "arg_perigee_deg": 101.8151,
      "mean_anomaly_deg": 258.2988,
      "mean_motion_rev_day": 15.30199398
    }
  ]
}